NORAD_CAT_ID,OBJECT_NAME,OBJECT_TYPE,EPOCH,MEAN_MOTION,ECCENTRICITY,INCLINATION,RA_OF_ASC_NODE,ARG_OF_PERICENTER,MEAN_ANOMALY,BSTAR,MEAN_MOTION_DOT,MEAN_MOTION_DDOT,TLE_LINE0,TLE_LINE1,TLE_LINE2,SEMIMAJOR_AXIS,PERIOD,APOGEE,PERIGEE,DECAYED
55783.0,STARLINK-5825,PAYLOAD,2023-04-02 09:05:49,15.69919801,0.0003041,70.001,71.9086,260.0509,100.0343,2.9222e-06,1.39e-06,0.0,0 STARLINK-5825,1 55783U 23028AU  23092.37903941  .00000139  00000-0  29222-5 0  9990,2 55783  70.0010  71.9086 0003041 260.0509 100.0343 15.69919801  5329,6737.263,91.724,361.177,357.08,0.0
55783.0,STARLINK-5825,PAYLOAD,2023-04-02 10:37:33,15.69924942,0.0003077,70.001,71.7293,270.8252,89.2591,2.5778e-05,2.888e-05,0.0,0 STARLINK-5825,1 55783U 23028AU  23092.44275409  .00002888  00000-0  25778-4 0  9993,2 55783  70.0010  71.7293 0003077 270.8252  89.2591 15.69924942  5336,6737.249,91.724,361.187,357.041,0.0
55783.0,STARLINK-5825,PAYLOAD,2023-04-03 08:02:05,15.69923941,0.000282,69.9996,69.2199,280.3959,79.6919,8.1422e-07,-1.15e-06,0.0,0 STARLINK-5825,1 55783U 23028AU  23093.33479033 -.00000115  00000-0  81422-6 0  9993,2 55783  69.9996  69.2199 0002820 280.3959  79.6919 15.69923941  5478,6737.252,91.724,361.017,357.217,0.0
55783.0,STARLINK-5825,PAYLOAD,2023-04-04 00:51:21,15.69929475,0.0003263,69.9995,67.2474,260.644,99.4387,1.1695e-05,1.194e-05,0.0,0 STARLINK-5825,1 55783U 23028AU  23094.03566813  .00001194  00000-0  11695-4 0  9994,2 55783  69.9995  67.2474 0003263 260.6440  99.4387 15.69929475  5588,6737.236,91.724,361.299,356.902,0.0
55783.0,STARLINK-5825,PAYLOAD,2023-04-04 06:58:22,15.69920605,0.000326,70.0026,66.5353,261.2915,98.7911,5.8701e-06,4.93e-06,0.0,0 STARLINK-5825,1 55783U 23028AU  23094.29054139  .00000493  00000-0  58701-5 0  9996,2 55783  70.0026  66.5353 0003260 261.2915  98.7911 15.69920605  5621,6737.261,91.724,361.322,356.93,0.0
55783.0,STARLINK-5825,PAYLOAD,2023-04-05 01:19:24,15.6991654,0.0003922,69.9994,64.3849,270.9891,89.0855,1.1074e-05,1.118e-05,0.0,0 STARLINK-5825,1 55783U 23028AU  23095.05514679  .00001118  00000-0  11074-4 0  9997,2 55783  69.9994  64.3849 0003922 270.9891  89.0855 15.69916540  5749,6737.273,91.725,361.78,356.495,0.0
55783.0,STARLINK-5825,PAYLOAD,2023-04-05 07:26:24,15.69928731,0.0003559,69.999,63.6677,265.0875,94.9914,2.0084e-05,2.203e-05,0.0,0 STARLINK-5825,1 55783U 23028AU  23095.31000458  .00002203  00000-0  20084-4 0  9998,2 55783  69.9990  63.6677 0003559 265.0875  94.9914 15.69928731  5789,6737.238,91.724,361.501,356.705,0.0
55783.0,STARLINK-5825,PAYLOAD,2023-04-05 10:29:54,15.69931966,0.000345,69.9995,63.3093,260.731,99.3496,2.3715e-05,2.641e-05,0.0,0 STARLINK-5825,1 55783U 23028AU  23095.43743478  .00002641  00000-0  23715-4 0  9997,2 55783  69.9995  63.3093 0003450 260.7310  99.3496 15.69931966  5800,6737.229,91.724,361.418,356.769,0.0
55783.0,STARLINK-5825,PAYLOAD,2023-04-06 00:15:41,15.69916456,0.0003349,69.9996,61.6971,256.1946,103.8877,1.7309e-05,1.868e-05,0.0,0 STARLINK-5825,1 55783U 23028AU  23096.01089554  .00001868  00000-0  17309-4 0  9992,2 55783  69.9996  61.6971 0003349 256.1946 103.8877 15.69916456  5898,6737.273,91.725,361.394,356.882,0.0
55783.0,STARLINK-5825,PAYLOAD,2023-04-06 06:22:41,15.69925797,0.0003162,69.9988,60.9779,259.0834,101.0006,2.1132e-05,2.329e-05,0.0,0 STARLINK-5825,1 55783U 23028AU  23096.26575650  .00002329  00000-0  21132-4 0  9998,2 55783  69.9988  60.9779 0003162 259.0834 101.0006 15.69925797  5935,6737.246,91.724,361.242,356.981,0.0
55783.0,STARLINK-5825,PAYLOAD,2023-04-07 06:50:43,15.69931601,0.0002931,69.9986,58.1134,264.9426,95.1436,1.3657e-05,1.43e-05,0.0,0 STARLINK-5825,1 55783U 23028AU  23097.28522393  .00001430  00000-0  13657-4 0  9992,2 55783  69.9986  58.1134 0002931 264.9426  95.1436 15.69931601  6091,6737.23,91.724,361.069,357.12,0.0
55783.0,STARLINK-5825,PAYLOAD,2023-04-07 23:40:00,15.69920392,0.0003096,69.9991,56.142,241.5785,118.5099,6.1896e-06,5.32e-06,0.0,0 STARLINK-5825,1 55783U 23028AU  23097.98611295  .00000532  00000-0  61896-5 0  9990,2 55783  69.9991  56.1420 0003096 241.5785 118.5099 15.69920392  6208,6737.262,91.724,361.213,357.041,0.0
55783.0,STARLINK-5825,PAYLOAD,2023-04-08 08:50:30,15.69923699,0.0003051,69.9996,55.0674,241.9423,118.1464,9.7384e-06,9.58e-06,0.0,0 STARLINK-5825,1 55783U 23028AU  23098.36841099  .00000958  00000-0  97384-5 0  9993,2 55783  69.9996  55.0674 0003051 241.9423 118.1464 15.69923699  6267,6737.252,91.724,361.173,357.062,0.0
55783.0,STARLINK-5825,PAYLOAD,2023-04-09 03:11:31,15.69932965,0.0003503,69.9979,52.9192,253.9715,106.1095,2.3466e-06,6.9e-07,0.0,0 STARLINK-5825,1 55783U 23028AU  23099.13300720  .00000069  00000-0  23466-5 0  9993,2 55783  69.9979  52.9192 0003503 253.9715 106.1095 15.69932965  6384,6737.226,91.724,361.451,356.731,0.0
55783.0,STARLINK-5825,PAYLOAD,2023-04-09 06:15:01,15.69934233,0.0003423,69.9979,52.5603,260.8604,99.2204,4.7859e-06,3.63e-06,0.0,0 STARLINK-5825,1 55783U 23028AU  23099.26043925  .00000363  00000-0  47859-5 0  9997,2 55783  69.9979  52.5603 0003423 260.8604  99.2204 15.69934233  6409,6737.222,91.724,361.393,356.781,0.0
55783.0,STARLINK-5825,PAYLOAD,2023-04-09 23:04:18,15.6992522,0.0003112,69.9997,50.5892,251.9945,108.0912,1.4665e-05,1.551e-05,0.0,0 STARLINK-5825,1 55783U 23028AU  23099.96132657  .00001551  00000-0  14665-4 0  9993,2 55783  69.9997  50.5892 0003112 251.9945 108.0912 15.69925220  6514,6737.248,91.724,361.21,357.016,0.0
55783.0,STARLINK-5825,PAYLOAD,2023-04-10 08:14:49,15.69925047,0.0003338,70.0001,49.5148,258.1068,101.9754,1.1993e-05,1.23e-05,0.0,0 STARLINK-5825,1 55783U 23028AU  23100.34362771  .00001230  00000-0  11993-4 0  9995,2 55783  70.0001  49.5148 0003338 258.1068 101.9754 15.69925047  6579,6737.248,91.724,361.362,356.865,0.0
55783.0,STARLINK-5825,PAYLOAD,2023-04-11 05:39:21,15.69922594,0.0003428,69.999,47.007,260.3669,99.714,1.3362e-05,1.394e-05,0.0,0 STARLINK-5825,1 55783U 23028AU  23101.23566249  .00001394  00000-0  13362-4 0  9993,2 55783  69.9990  47.0070 0003428 260.3669  99.7140 15.69922594  6715,6737.255,91.724,361.43,356.811,0.0
55783.0,STARLINK-5825,PAYLOAD,2023-04-11 19:25:06,15.69941709,0.0003237,69.9996,45.3934,265.1542,94.9285,1.9541e-05,2.139e-05,0.0,0 STARLINK-5825,1 55783U 23028AU  23101.80909724  .00002139  00000-0  19541-4 0  9998,2 55783  69.9996  45.3934 0003237 265.1542  94.9285 15.69941709  6808,6737.201,91.723,361.247,356.885,0.0
55783.0,STARLINK-5825,PAYLOAD,2023-04-12 13:46:09,15.69910468,0.0003098,69.9997,43.2451,270.6595,89.4246,-1.3677e-06,-3.77e-06,0.0,0 STARLINK-5825,1 55783U 23028AU  23102.57372300 -.00000377  00000-0 -13677-5 0  9996,2 55783  69.9997  43.2451 0003098 270.6595  89.4246 15.69910468  6921,6737.29,91.725,361.242,357.068,0.0
55783.0,STARLINK-5825,PAYLOAD,2023-04-13 02:00:10,15.69918969,0.0003119,70.0005,41.8145,269.4316,90.6522,1.4372e-05,1.515e-05,0.0,0 STARLINK-5825,1 55783U 23028AU  23103.08344923  .00001515  00000-0  14372-4 0  9998,2 55783  70.0005  41.8145 0003119 269.4316  90.6522 15.69918969  7004,6737.266,91.724,361.232,357.029,0.0
55783.0,STARLINK-5825,PAYLOAD,2023-04-13 05:03:40,15.69919212,0.0003126,70.0005,41.456,270.2681,89.8157,1.4153e-05,1.489e-05,0.0,0 STARLINK-5825,1 55783U 23028AU  23103.21088307  .00001489  00000-0  14153-4 0  9991,2 55783  70.0005  41.4560 0003126 270.2681  89.8157 15.69919212  7022,6737.265,91.724,361.236,357.024,0.0
55783.0,STARLINK-5825,PAYLOAD,2023-04-14 02:28:10,15.69955608,0.0003868,70.0003,38.9488,268.4303,91.645,1.0627e-05,1.067e-05,0.0,0 STARLINK-5825,1 55783U 23028AU  23104.10289392  .00001067  00000-0  10627-4 0  9991,2 55783  70.0003  38.9488 0003868 268.4303  91.6450 15.69955608  7164,6737.161,91.722,361.632,356.42,0.0
55783.0,STARLINK-5825,PAYLOAD,2023-04-14 05:31:41,15.69936015,0.0003602,69.9999,38.5901,272.9183,87.1601,-1.1609e-05,-1.609e-05,0.0,0 STARLINK-5825,1 55783U 23028AU  23104.23034242 -.00001609  00000-0 -11609-4 0  9992,2 55783  69.9999  38.5901 0003602 272.9183  87.1601 15.69936015  7184,6737.217,91.723,361.509,356.655,0.0
55783.0,STARLINK-5825,PAYLOAD,2023-04-15 04:27:59,15.69898917,0.0002563,70.0,35.9038,268.2171,91.8731,9.0394e-05,0.00010658,0.0,0 STARLINK-5825,1 55783U 23028AU  23105.18610306  .00010658  00000-0  90394-4 0  9998,2 55783  70.0000  35.9038 0002563 268.2171  91.8731 15.69898917  7333,6737.323,91.726,360.915,357.461,0.0
55783.0,STARLINK-5825,PAYLOAD,2023-04-15 21:17:15,15.69921435,0.0003411,70.0002,33.9342,249.9765,110.1064,1.3676e-05,1.432e-05,0.0,0 STARLINK-5825,1 55783U 23028AU  23105.88698722  .00001432  00000-0  13676-4 0  9991,2 55783  70.0002  33.9342 0003411 249.9765 110.1064 15.69921435  7447,6737.259,91.724,361.422,356.826,0.0
55783.0,STARLINK-5825,PAYLOAD,2023-04-16 04:56:02,15.69903919,0.0002821,70.0009,33.0368,258.7106,101.3772,-4.4909e-06,-7.52e-06,0.0,0 STARLINK-5825,1 55783U 23028AU  23106.20558673 -.00000752  00000-0 -44909-5 0  9998,2 55783  70.0009  33.0368 0002821 258.7106 101.3772 15.69903919  7494,6737.309,91.725,361.074,357.273,0.0
55783.0,STARLINK-5825,PAYLOAD,2023-04-16 20:13:33,15.69920876,0.0003272,70.0001,31.2436,261.9509,98.1315,-2.2279e-06,-4.8e-06,0.0,0 STARLINK-5825,1 55783U 23028AU  23106.84274499 -.00000480  00000-0 -22279-5 0  9993,2 55783  70.0001  31.2436 0003272 261.9509  98.1315 15.69920876  7594,6737.26,91.724,361.33,356.921,0.0
55783.0,STARLINK-5825,PAYLOAD,2023-04-16 21:45:18,15.69918582,0.0002891,70.0016,31.0668,246.4693,113.62,-2.5031e-06,-5.13e-06,0.0,0 STARLINK-5825,1 55783U 23028AU  23106.90646283 -.00000513  00000-0 -25031-5 0  9990,2 55783  70.0016  31.0668 0002891 246.4693 113.6200 15.69918582  7602,6737.267,91.725,361.08,357.184,0.0
55783.0,STARLINK-5825,PAYLOAD,2023-04-17 03:52:18,15.69928714,0.000284,70.0019,30.3507,239.8644,120.2271,8.3787e-06,7.95e-06,0.0,0 STARLINK-5825,1 55783U 23028AU  23107.16132162  .00000795  00000-0  83787-5 0  9997,2 55783  70.0019  30.3507 0002840 239.8644 120.2271 15.69928714  7649,6737.238,91.724,361.016,357.19,0.0
